[Satellite]
VERSION=1.1
NAME=FLOCK 1B-23
NICKNAME=FLOCK 1B-23
TLE1=1 40123U 98067EV  15055.58722716  .00859529  38180-3  13003-2 0  9994
TLE2=2 40123  51.6185 266.5727 0009145 264.1624 204.3399 16.03913679 65328
